NORAD_CAT_ID,OBJECT_NAME,OBJECT_TYPE,EPOCH,MEAN_MOTION,ECCENTRICITY,INCLINATION,RA_OF_ASC_NODE,ARG_OF_PERICENTER,MEAN_ANOMALY,BSTAR,MEAN_MOTION_DOT,MEAN_MOTION_DDOT,TLE_LINE0,TLE_LINE1,TLE_LINE2,SEMIMAJOR_AXIS,PERIOD,APOGEE,PERIGEE,DECAYED
52989.0,STARLINK-4293,PAYLOAD,2023-05-16 16:50:04,15.08836198,0.0001216,53.2194,38.9386,97.9281,262.1849,6.0464e-05,6.74e-06,0.0,0 STARLINK-4293,1 52989U 22076D   23136.70143713  .00000674  00000-0  60464-4 0  9992,2 52989  53.2194  38.9386 0001216  97.9281 262.1849 15.08836198 47981,6917.892,95.438,540.598,538.916,0.0
52989.0,STARLINK-4293,PAYLOAD,2023-05-16 21:36:13,15.08838029,0.0001153,53.2189,38.0468,102.6577,257.4545,-1.6099e-05,-5.44e-06,0.0,0 STARLINK-4293,1 52989U 22076D   23136.90015654 -.00000544  00000-0 -16099-4 0  9999,2 52989  53.2189  38.0468 0001153 102.6577 257.4545 15.08838029 47546,6917.886,95.438,540.549,538.954,0.0
52989.0,STARLINK-4293,PAYLOAD,2023-05-17 02:22:22,15.08843611,0.0001161,53.2185,37.154,86.322,273.7905,8.7166e-05,1.1e-05,0.0,0 STARLINK-4293,1 52989U 22076D   23137.09887486  .00001100  00000-0  87166-4 0  9990,2 52989  53.2185  37.1540 0001161  86.3220 273.7905 15.08843611 48045,6917.869,95.437,540.538,538.931,0.0
52989.0,STARLINK-4293,PAYLOAD,2023-05-17 21:27:00,15.08836714,0.0001262,53.2182,33.5845,73.9073,286.2058,0.0001539,2.162e-05,0.0,0 STARLINK-4293,1 52989U 22076D   23137.89376118  .00002162  00000-0  15390-3 0  9991,2 52989  53.2182  33.5845 0001262  73.9073 286.2058 15.08836714 47694,6917.89,95.438,540.628,538.882,0.0
52989.0,STARLINK-4293,PAYLOAD,2023-05-18 02:13:10,15.0883977,0.0001288,53.2182,32.6929,70.3822,289.7309,0.00014416,2.007e-05,0.0,0 STARLINK-4293,1 52989U 22076D   23138.09248038  .00002007  00000-0  14416-3 0  9999,2 52989  53.2182  32.6929 0001288  70.3822 289.7309 15.08839770 48196,6917.881,95.438,540.637,538.855,0.0
52989.0,STARLINK-4293,PAYLOAD,2023-05-18 22:53:10,15.08845191,0.0001165,53.2178,28.8262,77.8085,282.3038,0.00011157,1.488e-05,0.0,0 STARLINK-4293,1 52989U 22076D   23138.95359706  .00001488  00000-0  11157-3 0  9990,2 52989  53.2178  28.8262 0001165  77.8085 282.3038 15.08845191 47859,6917.865,95.437,540.535,538.924,0.0
52989.0,STARLINK-4293,PAYLOAD,2023-05-19 16:22:25,15.08842467,9.65e-05,53.2175,25.555,85.7318,274.3784,9.2893e-05,1.191e-05,0.0,0 STARLINK-4293,1 52989U 22076D   23139.68223848  .00001191  00000-0  92893-4 0  9996,2 52989  53.2175  25.5550 0000965  85.7318 274.3784 15.08842467 48431,6917.873,95.437,540.405,539.07,0.0
52989.0,STARLINK-4293,PAYLOAD,2023-05-19 21:08:34,15.08844145,0.0001003,53.2175,24.6639,83.4665,276.6441,0.00011307,1.512e-05,0.0,0 STARLINK-4293,1 52989U 22076D   23139.88095754  .00001512  00000-0  11307-3 0  9998,2 52989  53.2175  24.6639 0001003  83.4665 276.6441 15.08844145 47993,6917.868,95.437,540.427,539.039,0.0
52989.0,STARLINK-4293,PAYLOAD,2023-05-20 01:54:43,15.08849341,0.0001062,53.2182,23.7704,87.8745,272.2368,0.00013209,1.816e-05,0.0,0 STARLINK-4293,1 52989U 22076D   23140.07967249  .00001816  00000-0  13209-3 0  9998,2 52989  53.2182  23.7704 0001062  87.8745 272.2368 15.08849341 48495,6917.852,95.437,540.452,538.982,0.0
52989.0,STARLINK-4293,PAYLOAD,2023-05-20 19:23:58,15.08847631,0.0001196,53.2184,20.4986,96.2945,263.8183,0.00016312,2.31e-05,0.0,0 STARLINK-4293,1 52989U 22076D   23140.80831060  .00002310  00000-0  16312-3 0  9998,2 52989  53.2184  20.4986 0001196  96.2945 263.8183 15.08847631 48139,6917.857,95.437,540.549,538.895,0.0
52989.0,STARLINK-4293,PAYLOAD,2023-05-21 01:45:30,15.08858035,0.0001256,53.2175,19.3086,98.4739,261.6396,0.00032933,4.96e-05,0.0,0 STARLINK-4293,1 52989U 22076D   23141.07326644  .00004960  00000-0  32933-3 0  9995,2 52989  53.2175  19.3086 0001256  98.4739 261.6396 15.08858035 48175,6917.825,95.436,540.559,538.821,0.0
52989.0,STARLINK-4293,PAYLOAD,2023-05-21 22:25:32,15.08824627,0.0001164,53.2175,15.4442,80.4267,279.6857,-0.00017063,-3.001e-05,0.0,0 STARLINK-4293,1 52989U 22076D   23141.93440876 -.00003001  00000-0 -17063-3 0  9998,2 52989  53.2175  15.4442 0001164  80.4267 279.6857 15.08824627 48309,6917.927,95.439,540.598,538.987,0.0
52989.0,STARLINK-4293,PAYLOAD,2023-05-22 01:36:19,15.08822908,0.0001123,53.2176,14.8498,78.7936,281.3183,-0.00017842,-3.125e-05,0.0,0 STARLINK-4293,1 52989U 22076D   23142.06689100 -.00003125  00000-0 -17842-3 0  9990,2 52989  53.2176  14.8498 0001123  78.7936 281.3183 15.08822908 48797,6917.933,95.439,540.575,539.021,0.0
52989.0,STARLINK-4293,PAYLOAD,2023-05-22 07:57:51,15.0882944,0.0001118,53.2175,13.6616,79.5569,280.5549,-6.3409e-05,-1.296e-05,0.0,0 STARLINK-4293,1 52989U 22076D   23142.33185012 -.00001296  00000-0 -63409-4 0  9991,2 52989  53.2175  13.6616 0001118  79.5569 280.5549 15.08829440 48368,6917.913,95.438,540.551,539.004,0.0
52989.0,STARLINK-4293,PAYLOAD,2023-05-22 15:54:47,15.08835567,0.0001032,53.2173,12.1744,78.1498,281.961,0.00010574,1.395e-05,0.0,0 STARLINK-4293,1 52989U 22076D   23142.66304969  .00001395  00000-0  10574-3 0  9993,2 52989  53.2173  12.1744 0001032  78.1498 281.9610 15.08835567 48881,6917.894,95.438,540.473,539.045,0.0
52989.0,STARLINK-4293,PAYLOAD,2023-05-23 22:07:06,15.08852649,0.000104,53.2173,6.5246,70.7905,289.3199,0.00051147,7.864e-05,0.0,0 STARLINK-4293,1 52989U 22076D   23143.92160834  .00007864  00000-0  51147-3 0  9992,2 52989  53.2173   6.5246 0001040  70.7905 289.3199 15.08852649 48609,6917.842,95.437,540.426,538.987,0.0
52989.0,STARLINK-4293,PAYLOAD,2023-05-24 02:53:15,15.08865968,0.0001044,53.2168,5.6325,74.4508,285.66,0.00070688,0.00010988,0.0,0 STARLINK-4293,1 52989U 22076D   23144.12032351  .00010988  00000-0  70688-3 0  9999,2 52989  53.2168   5.6325 0001044  74.4508 285.6600 15.08865968 49105,6917.801,95.436,540.388,538.944,0.0
52989.0,STARLINK-4293,PAYLOAD,2023-05-24 06:04:02,15.08843511,0.0001184,53.2168,5.0377,71.44,288.6721,-0.00014297,-2.563e-05,0.0,0 STARLINK-4293,1 52989U 22076D   23144.25280765 -.00002563  00000-0 -14297-3 0  9993,2 52989  53.2168   5.0377 0001184  71.4400 288.6721 15.08843511 49128,6917.87,95.437,540.554,538.916,0.0
52989.0,STARLINK-4293,PAYLOAD,2023-05-24 15:36:21,15.08841494,9.19e-05,53.2166,3.2536,86.0697,274.04,-8.3182e-05,-1.611e-05,0.0,0 STARLINK-4293,1 52989U 22076D   23144.65024639 -.00001611  00000-0 -83182-4 0  9996,2 52989  53.2166   3.2536 0000919  86.0697 274.0400 15.08841494 48713,6917.876,95.437,540.377,539.105,0.0
52989.0,STARLINK-4293,PAYLOAD,2023-05-25 18:37:54,15.08849073,0.0001086,53.216,358.1979,95.3091,264.8025,0.00053399,8.223e-05,0.0,0 STARLINK-4293,1 52989U 22076D   23145.77632539  .00008223  00000-0  53399-3 0  9994,2 52989  53.2160 358.1979 0001086  95.3091 264.8025 15.08849073 49359,6917.853,95.437,540.469,538.966,0.0
52989.0,STARLINK-4293,PAYLOAD,2023-05-25 21:48:40,15.08851116,0.0001013,53.2164,357.6033,94.7922,265.3186,0.00048087,7.376e-05,0.0,0 STARLINK-4293,1 52989U 22076D   23145.90880418  .00007376  00000-0  48087-3 0  9996,2 52989  53.2164 357.6033 0001013  94.7922 265.3186 15.08851116 48909,6917.846,95.437,540.412,539.011,0.0
52989.0,STARLINK-4293,PAYLOAD,2023-05-26 13:42:32,15.08840493,0.000117,53.2168,354.6299,101.5292,258.5831,0.00018517,2.66e-05,0.0,0 STARLINK-4293,1 52989U 22076D   23146.57120674  .00002660  00000-0  18517-3 0  9997,2 52989  53.2168 354.6299 0001170 101.5292 258.5831 15.08840493 49004,6917.879,95.438,540.553,538.934,0.0
52989.0,STARLINK-4293,PAYLOAD,2023-05-26 18:28:41,15.08838222,0.0001091,53.2165,353.7372,99.2137,260.8979,0.00018065,2.588e-05,0.0,0 STARLINK-4293,1 52989U 22076D   23146.76992883  .00002588  00000-0  18065-3 0  9994,2 52989  53.2165 353.7372 0001091  99.2137 260.8979 15.08838222 49507,6917.886,95.438,540.506,538.996,0.0
52989.0,STARLINK-4293,PAYLOAD,2023-05-26 20:04:05,15.08837082,0.0001054,53.2167,353.44,97.3747,262.7365,0.00015013,2.102e-05,0.0,0 STARLINK-4293,1 52989U 22076D   23146.83616916  .00002102  00000-0  15013-3 0  9994,2 52989  53.2167 353.4400 0001054  97.3747 262.7365 15.08837082 49045,6917.889,95.438,540.483,539.025,0.0
52989.0,STARLINK-4293,PAYLOAD,2023-05-27 19:54:51,15.08848779,0.0001061,53.2173,348.979,87.2744,272.837,0.00016697,2.371e-05,0.0,0 STARLINK-4293,1 52989U 22076D   23147.82976715  .00002371  00000-0  16697-3 0  9997,2 52989  53.2173 348.9790 0001061  87.2744 272.8370 15.08848779 49667,6917.854,95.437,540.453,538.985,0.0
52989.0,STARLINK-4293,PAYLOAD,2023-05-27 23:05:38,15.08851465,0.0001072,53.2172,348.3842,85.2776,274.8338,0.00025752,3.814e-05,0.0,0 STARLINK-4293,1 52989U 22076D   23147.96224618  .00003814  00000-0  25752-3 0  9995,2 52989  53.2172 348.3842 0001072  85.2776 274.8338 15.08851465 49216,6917.845,95.437,540.452,538.969,0.0
52989.0,STARLINK-4293,PAYLOAD,2023-05-28 18:10:15,15.0884921,0.0001039,53.2171,344.8163,83.7031,276.4079,0.00027485,4.09e-05,0.0,0 STARLINK-4293,1 52989U 22076D   23148.75712677  .00004090  00000-0  27485-3 0  9992,2 52989  53.2171 344.8163 0001039  83.7031 276.4079 15.08849210 49802,6917.852,95.437,540.436,538.998,0.0
52989.0,STARLINK-4293,PAYLOAD,2023-05-28 19:45:38,15.08850684,0.0001041,53.217,344.5191,82.4841,277.627,0.00029319,4.383e-05,0.0,0 STARLINK-4293,1 52989U 22076D   23148.82336594  .00004383  00000-0  29319-3 0  9993,2 52989  53.2170 344.5191 0001041  82.4841 277.6270 15.08850684 49349,6917.848,95.437,540.433,538.993,0.0
52989.0,STARLINK-4293,PAYLOAD,2023-05-29 13:14:53,15.08841273,0.0001085,53.2168,341.2485,81.6431,278.4684,-1.1525e-05,-4.71e-06,0.0,0 STARLINK-4293,1 52989U 22076D   23149.55200776 -.00000471  00000-0 -11525-4 0  9993,2 52989  53.2168 341.2485 0001085  81.6431 278.4684 15.08841273 49454,6917.876,95.437,540.492,538.991,0.0
52989.0,STARLINK-4293,PAYLOAD,2023-05-29 16:25:39,15.0884072,9.33e-05,53.2172,340.6537,94.6634,265.4465,6.789e-06,-1.8e-06,0.0,0 STARLINK-4293,1 52989U 22076D   23149.68448888 -.00000180  00000-0  67890-5 0  9998,2 52989  53.2172 340.6537 0000933  94.6634 265.4465 15.08840720 49943,6917.878,95.438,540.389,539.098,0.0
